[{"OBJECT_NAME":"JILIN-1 05","OBJECT_ID":"2017-074B","EPOCH":"2026-03-09T21:56:30.612480","MEAN_MOTION":15.3245271,"ECCENTRICITY":0.00045948,"INCLINATION":97.4781,"RA_OF_ASC_NODE":173.8936,"ARG_OF_PERICENTER":206.4038,"MEAN_ANOMALY":153.6971,"EPHEMERIS_TYPE":0,"CLASSIFICATION_TYPE":"U","NORAD_CAT_ID":43023,"ELEMENT_SET_NO":999,"REV_AT_EPOCH":45879,"BSTAR":0.00026108793,"MEAN_MOTION_DOT":8.104e-5,"MEAN_MOTION_DDOT":0},{"OBJECT_NAME":"STARLINK-31229","OBJECT_ID":"2024-031X","EPOCH":"2026-03-09T22:06:25.308000","MEAN_MOTION":15.30189928,"ECCENTRICITY":0.00010189,"INCLINATION":53.1598,"RA_OF_ASC_NODE":295.9694,"ARG_OF_PERICENTER":105.0075,"MEAN_ANOMALY":255.1039,"EPHEMERIS_TYPE":0,"CLASSIFICATION_TYPE":"U","NORAD_CAT_ID":58986,"ELEMENT_SET_NO":999,"REV_AT_EPOCH":11654,"BSTAR":1.6318058e-5,"MEAN_MOTION_DOT":1.24e-6,"MEAN_MOTION_DDOT":0}]
